{"type": "FeatureCollection", "features": [ {"type": "Feature", "properties": {"norad_id": 59598, "name": "GSAT0225 (GALILEO 29)", "group": "gnss", "lat": 31.53025066540204, "lon": -99.20983988073203, "alt_km": 23213.383840163682, "timestamp": "2025-12-14T20:40:32.015667+00:00", "meta": {"OBJECT_NAME": "GSAT0225 (GALILEO 29)", "OBJECT_ID": "2024-079A", "EPOCH": "2025-12-13T14:17:14.853120", "MEAN_MOTION": 1.7047497, "ECCENTRICITY": 0.00020845, "INCLINATION": 55.0023, "RA_OF_ASC_NODE": 106.2711, "ARG_OF_PERICENTER": 178.8578, "MEAN_ANOMALY": 264.3288, "EPHEMERIS_TYPE": 0, "CLASSIFICATION_TYPE": "U", "NORAD_CAT_ID": 59598, "ELEMENT_SET_NO": 999, "REV_AT_EPOCH": 1015, "BSTAR": 0, "MEAN_MOTION_DOT": -1e-08, "MEAN_MOTION_DDOT": 0}, "tle": {"line1": "1 59598U 24079A   25347.59531080 -.00000001  00000+0  00000+0 0  9990", "line2": "2 59598  55.0023 106.2711 0002084 178.8578 264.3288  1.70474970 10158"}}, "geometry": {"type": "Point", "coordinates": [-99.20983988073203, 31.53025066540204]}}, {"type": "Feature", "properties": {"norad_id": 59600, "name": "GSAT0227 (GALILEO 30)", "group": "gnss", "lat": 22.406747261436408, "lon": 122.9986052367863, "alt_km": 23218.817897194895, "timestamp": "2025-12-14T20:40:32.015685+00:00", "meta": {"OBJECT_NAME": "GSAT0227 (GALILEO 30)", "OBJECT_ID": "2024-079C", "EPOCH": "2025-12-08T22:48:42.234912", "MEAN_MOTION": 1.70474719, "ECCENTRICITY": 0.0003262, "INCLINATION": 54.9946, "RA_OF_ASC_NODE": 106.4003, "ARG_OF_PERICENTER": 114.182, "MEAN_ANOMALY": 245.816, "EPHEMERIS_TYPE": 0, "CLASSIFICATION_TYPE": "U", "NORAD_CAT_ID": 59600, "ELEMENT_SET_NO": 999, "REV_AT_EPOCH": 1012, "BSTAR": 0, "MEAN_MOTION_DOT": 9e-08, "MEAN_MOTION_DDOT": 0}, "tle": {"line1": "1 59600U 24079C   25342.95048883  .00000009  00000+0  00000+0 0  9990", "line2": "2 59600  54.9946 106.4003 0003262 114.1820 245.8160  1.70474719 10123"}}, "geometry": {"type": "Point", "coordinates": [122.9986052367863, 22.406747261436408]}}, {"type": "Feature", "properties": {"norad_id": 61182, "name": "GSAT0232 (GALILEO 32)", "group": "gnss", "lat": -33.50853618679028, "lon": 73.72368735358442, "alt_km": 23220.746420095962, "timestamp": "2025-12-14T20:40:32.015706+00:00", "meta": {"OBJECT_NAME": "GSAT0232 (GALILEO 32)", "OBJECT_ID": "2024-167A", "EPOCH": "2025-12-12T10:51:18.741600", "MEAN_MOTION": 1.70473504, "ECCENTRICITY": 0.00019431, "INCLINATION": 55.2408, "RA_OF_ASC_NODE": 226.4386, "ARG_OF_PERICENTER": 211.6313, "MEAN_ANOMALY": 332.0573, "EPHEMERIS_TYPE": 0, "CLASSIFICATION_TYPE": "U", "NORAD_CAT_ID": 61182, "ELEMENT_SET_NO": 999, "REV_AT_EPOCH": 769, "BSTAR": 0, "MEAN_MOTION_DOT": 1.6e-07, "MEAN_MOTION_DDOT": 0}, "tle": {"line1": "1 61182U 24167A   25346.45230025  .00000016  00000+0  00000+0 0  9994", "line2": "2 61182  55.2408 226.4386 0001943 211.6313 332.0573  1.70473504  7695"}}, "geometry": {"type": "Point", "coordinates": [73.72368735358442, -33.50853618679028]}}, {"type": "Feature", "properties": {"norad_id": 61183, "name": "GSAT0226 (GALILEO 31)", "group": "gnss", "lat": -20.459230392953778, "lon": -148.61566261409368, "alt_km": 23226.877013436842, "timestamp": "2025-12-14T20:40:32.015726+00:00", "meta": {"OBJECT_NAME": "GSAT0226 (GALILEO 31)", "OBJECT_ID": "2024-167B", "EPOCH": "2025-12-12T20:26:08.685024", "MEAN_MOTION": 1.70473602, "ECCENTRICITY": 8.42e-05, "INCLINATION": 55.2391, "RA_OF_ASC_NODE": 226.433, "ARG_OF_PERICENTER": 113.0334, "MEAN_ANOMALY": 68.3038, "EPHEMERIS_TYPE": 0, "CLASSIFICATION_TYPE": "U", "NORAD_CAT_ID": 61183, "ELEMENT_SET_NO": 999, "REV_AT_EPOCH": 767, "BSTAR": 0, "MEAN_MOTION_DOT": 1.9e-07, "MEAN_MOTION_DDOT": 0}, "tle": {"line1": "1 61183U 24167B   25346.85148941  .00000019  00000+0  00000+0 0  9997", "line2": "2 61183  55.2391 226.4330 0000842 113.0334  68.3038  1.70473602  7673"}}, "geometry": {"type": "Point", "coordinates": [-148.61566261409368, -20.459230392953778]}}, {"type": "Feature", "properties": {"norad_id": 61186, "name": "BEIDOU-3 M25 (C47)", "group": "gnss", "lat": 52.74227841148192, "lon": 17.524549893960973, "alt_km": 21533.484545946256, "timestamp": "2025-12-14T20:40:32.015744+00:00", "meta": {"OBJECT_NAME": "BEIDOU-3 M25 (C47)", "OBJECT_ID": "2024-168B", "EPOCH": "2025-12-13T09:51:38.613312", "MEAN_MOTION": 1.86230198, "ECCENTRICITY": 0.00054273, "INCLINATION": 54.6413, "RA_OF_ASC_NODE": 308.6962, "ARG_OF_PERICENTER": 297.8799, "MEAN_ANOMALY": 246.8955, "EPHEMERIS_TYPE": 0, "CLASSIFICATION_TYPE": "U", "NORAD_CAT_ID": 61186, "ELEMENT_SET_NO": 999, "REV_AT_EPOCH": 832, "BSTAR": 0, "MEAN_MOTION_DOT": -9.7e-07, "MEAN_MOTION_DDOT": 0}, "tle": {"line1": "1 61186U 24168B   25347.41086358 -.00000097  00000+0  00000+0 0  9994", "line2": "2 61186  54.6413 308.6962 0005427 297.8799 246.8955  1.86230198  8320"}}, "geometry": {"type": "Point", "coordinates": [17.524549893960973, 52.74227841148192]}}, {"type": "Feature", "properties": {"norad_id": 61187, "name": "BEIDOU-3 M27 (C49)", "group": "gnss", "lat": -25.847063647459738, "lon": 148.71985605282086, "alt_km": 21535.315181218124, "timestamp": "2025-12-14T20:40:32.015762+00:00", "meta": {"OBJECT_NAME": "BEIDOU-3 M27 (C49)", "OBJECT_ID": "2024-168C", "EPOCH": "2025-12-13T04:47:06.571968", "MEAN_MOTION": 1.86230336, "ECCENTRICITY": 0.00023989, "INCLINATION": 54.6369, "RA_OF_ASC_NODE": 308.6872, "ARG_OF_PERICENTER": 337.1666, "MEAN_ANOMALY": 200.7639, "EPHEMERIS_TYPE": 0, "CLASSIFICATION_TYPE": "U", "NORAD_CAT_ID": 61187, "ELEMENT_SET_NO": 999, "REV_AT_EPOCH": 579, "BSTAR": 0, "MEAN_MOTION_DOT": -9.6e-07, "MEAN_MOTION_DDOT": 0}, "tle": {"line1": "1 61187U 24168C   25347.19938162 -.00000096  00000+0  00000+0 0  9998", "line2": "2 61187  54.6369 308.6872 0002398 337.1666 200.7639  1.86230336  5796"}}, "geometry": {"type": "Point", "coordinates": [148.71985605282086, -25.847063647459738]}}, {"type": "Feature", "properties": {"norad_id": 62339, "name": "GPS BIII-7  (PRN 01)", "group": "gnss", "lat": -6.015852290242295, "lon": -22.596520790297095, "alt_km": 20150.581074924186, "timestamp": "2025-12-14T20:40:32.015779+00:00", "meta": {"OBJECT_NAME": "GPS BIII-7  (PRN 01)", "OBJECT_ID": "2024-242A", "EPOCH": "2025-12-13T08:55:39.244800", "MEAN_MOTION": 2.00567973, "ECCENTRICITY": 0.00122972, "INCLINATION": 54.9234, "RA_OF_ASC_NODE": 341.714, "ARG_OF_PERICENTER": 344.9239, "MEAN_ANOMALY": 12.1981, "EPHEMERIS_TYPE": 0, "CLASSIFICATION_TYPE": "U", "NORAD_CAT_ID": 62339, "ELEMENT_SET_NO": 999, "REV_AT_EPOCH": 752, "BSTAR": 0, "MEAN_MOTION_DOT": -9.1e-07, "MEAN_MOTION_DDOT": 0}, "tle": {"line1": "1 62339U 24242A   25347.37198200 -.00000091  00000+0  00000+0 0  9997", "line2": "2 62339  54.9234 341.7140 0012297 344.9239  12.1981  2.00567973  7522"}}, "geometry": {"type": "Point", "coordinates": [-22.596520790297095, -6.015852290242295]}}, {"type": "Feature", "properties": {"norad_id": 62850, "name": "NVS-02 (IRNSS-1K)", "group": "gnss", "lat": 20.75582833682721, "lon": 65.55475411286734, "alt_km": 2939.5476082924024, "timestamp": "2025-12-14T20:40:32.015802+00:00", "meta": {"OBJECT_NAME": "NVS-02 (IRNSS-1K)", "OBJECT_ID": "2025-020A", "EPOCH": "2025-12-13T22:14:29.156640", "MEAN_MOTION": 2.17595705, "ECCENTRICITY": 0.73477393, "INCLINATION": 20.9799, "RA_OF_ASC_NODE": 327.2303, "ARG_OF_PERICENTER": 27.0041, "MEAN_ANOMALY": 357.1533, "EPHEMERIS_TYPE": 0, "CLASSIFICATION_TYPE": "U", "NORAD_CAT_ID": 62850, "ELEMENT_SET_NO": 999, "REV_AT_EPOCH": 694, "BSTAR": 0.00036888286, "MEAN_MOTION_DOT": 5.06e-06, "MEAN_MOTION_DDOT": 0}, "tle": {"line1": "1 62850U 25020A   25347.92672635  .00000506  00000+0  36888-3 0  9997", "line2": "2 62850  20.9799 327.2303 7347739  27.0041 357.1533  2.17595705  6940"}}, "geometry": {"type": "Point", "coordinates": [65.55475411286734, 20.75582833682721]}}, {"type": "Feature", "properties": {"norad_id": 62876, "name": "QZS-6 (QZSS/PRN 200)", "group": "gnss", "lat": 0.038041869683334874, "lon": 124.399398182359, "alt_km": 35791.26060324246, "timestamp": "2025-12-14T20:40:32.015833+00:00", "meta": {"OBJECT_NAME": "QZS-6 (QZSS/PRN 200)", "OBJECT_ID": "2025-023A", "EPOCH": "2025-12-14T06:59:49.365312", "MEAN_MOTION": 1.00274237, "ECCENTRICITY": 0.0001621, "INCLINATION": 0.0356, "RA_OF_ASC_NODE": 60.2807, "ARG_OF_PERICENTER": 212.2981, "MEAN_ANOMALY": 6.0961, "EPHEMERIS_TYPE": 0, "CLASSIFICATION_TYPE": "U", "NORAD_CAT_ID": 62876, "ELEMENT_SET_NO": 999, "REV_AT_EPOCH": 310, "BSTAR": 0, "MEAN_MOTION_DOT": -2.16e-06, "MEAN_MOTION_DDOT": 0}, "tle": {"line1": "1 62876U 25023A   25348.29154358 -.00000216  00000+0  00000+0 0  9998", "line2": "2 62876   0.0356  60.2807 0001621 212.2981   6.0961  1.00274237  3105"}}, "geometry": {"type": "Point", "coordinates": [124.399398182359, 0.038041869683334874]}}, {"type": "Feature", "properties": {"norad_id": 63130, "name": "COSMOS 2584 (704K)", "group": "gnss", "lat": 60.13695547073459, "lon": -155.23964943457068, "alt_km": 19130.15859887714, "timestamp": "2025-12-14T20:40:32.015861+00:00", "meta": {"OBJECT_NAME": "COSMOS 2584 (704K)", "OBJECT_ID": "2025-042A", "EPOCH": "2025-12-14T06:03:59.697792", "MEAN_MOTION": 2.13103042, "ECCENTRICITY": 0.00076766, "INCLINATION": 64.9768, "RA_OF_ASC_NODE": 79.0943, "ARG_OF_PERICENTER": 217.6915, "MEAN_ANOMALY": 142.268, "EPHEMERIS_TYPE": 0, "CLASSIFICATION_TYPE": "U", "NORAD_CAT_ID": 63130, "ELEMENT_SET_NO": 999, "REV_AT_EPOCH": 610, "BSTAR": 0, "MEAN_MOTION_DOT": -5.4e-07, "MEAN_MOTION_DDOT": 0}, "tle": {"line1": "1 63130U 25042A   25348.25277428 -.00000054  00000+0  00000+0 0  9993", "line2": "2 63130  64.9768  79.0943 0007676 217.6915 142.2680  2.13103042  6100"}}, "geometry": {"type": "Point", "coordinates": [-155.23964943457068, 60.13695547073459]}}]}